#dP2022  3  2  0  0  0.00000000      96 __u+U ITR00 EXT  IAC
## 2199 259200.00000000   900.00000000 59640 0.0000000000000
+  117   C06C07C08C09C10C11C12C13C14C16C19C20C21C22C23C24C25
+        C26C27C28C29C30C32C33C34C35C36C37C38C39C40C41C42C43
+        C44C45C46E01E02E03E04E05E07E08E09E10E11E12E13E14E15
+        E18E19E21E24E25E26E27E30E31E33E34E36G01G02G03G04G05
+        G06G07G08G09G10G11G12G13G14G15G16G17G18G19G20G21G22
+        G23G24G25G26G27G28G29G30G31G32J02J03R01R02R03R04R05
+        R07R08R09R11R12R13R14R15R17R18R19R20R21R22R24  0  0
++        10  9  8 10  8  9  8  8  9 10  8  8  9  9  9 10 10
++         9  9  8  9  8  8 10  9  9  8  8 10  9  8  9  9  8
++        10  9  9  8  8  7  9  7  9  8  8  8  8  9  9  9  8
++         8  9  8  8  8  8  8  8  8  9  9  7 11  7  9  7  9
++         8  8  9  8  7  8  8  8  8  7  8  8  9  8  8  9  8
++         7  8  8  8  7  8  8  8  9  7 10  8  8  7  9  8 10
++         9  7  8  9  9  9  8  9  8  8 10  9  8  9  8  0  0
%c M  cc GPS ccc cccc cccc cccc cccc ccccc ccccc ccccc ccccc
%c cc cc ccc ccc cccc cccc cccc cccc ccccc ccccc ccccc ccccc
%f  0.0000000  0.000000000  0.00000000000  0.000000000000000
%f  0.0000000  0.000000000  0.00000000000  0.000000000000000
%i    0    0    0    0      0      0      0      0         0
%i    0    0    0    0      0      0      0      0         0
/* IAC                                ULTRA-RAPID PREDICTION
/* S/V CLOCKS ARE ALIGNED TO GNSS TIME                      
/* G:C1WC2W R:C1PC2P E:C1XC5X C:C2IC6I J:C1CC2S             
/* PCV:IGS14_2196 OL/AL:FES2004  NONE     YN ORB:CoN CLK:CoN
*  2022 03 02 18 45  0.00000000
PC06  -9533.448220  40440.793985   7811.021345   -802.852030
PC07  -6030.785170  26887.822286 -31891.851803   -118.608255
PC08 -19874.297820  26549.880162  25959.568670    170.428997
PC09  -4186.220354  42138.809419  -2373.853975   -569.273914
PC10   2166.250708  29305.410946 -29845.630180    139.440151
PC11  -4934.373268 -25122.181640 -11066.082493   -175.969438
PC12   6368.844093 -26426.773057   6362.813730    681.815800
PC13 -10664.027534  27203.534830  30428.805445   -101.303014
PC14 -15007.112198 -20115.644490 -12233.975707    452.185029
PC16  -9916.211403  40101.527424   9230.977810     93.973221
PC19  21678.917949  17224.147010   3440.721650    890.661412
PC20   7522.136601  19903.394097  18060.412479   -835.655636
PC21  12036.784988 -10780.904697 -22728.653392   -930.085967
PC22  23824.003626   4459.538939 -13803.855539   -959.102235
PC23 -25724.888661   4789.223366   9684.874758   -950.129497
PC24   5066.448791 -18601.705600  20168.576347   -944.978280
PC25 -15850.403345  -8873.182375  21167.733677   -771.693823
PC26  20372.250593 -17216.541907   8254.382022    771.742666
PC27 -11458.390196  21221.396348 -14075.633325    685.698696
PC28 -15969.246083   2500.083007 -22745.465730     38.867346
PC29  11779.780938  17733.029696  18039.964207    522.272861
PC30    339.480969  27834.118164   2166.909781    494.407240
PC32 -12033.586130  10853.212346  22739.060720   -972.640188
PC33 -21772.853407 -17119.715763  -3461.558633   -961.616475
PC34   -949.965645 -27699.760780  -3126.791663   -457.225343
PC35  15960.646050  -2075.356512  22787.562878    163.898398
PC36  15224.699032   9564.467697 -21326.949204   -925.332079
PC37 -21436.589618  16300.703666  -7258.687317   -950.062984
PC38 -24667.329316  27791.211858  19814.077480    215.159826
PC39 -11733.137954  37317.424115  15965.084351     34.848073
PC40  -9001.971672  21290.440758 -35264.544265    248.916150
PC41 -23998.595934  -4676.670323  13503.516017   -947.238355
PC42  -6621.876975 -19740.933259 -18539.265324   -934.550840
PC43 -11512.921004 -18340.691691 -17593.300816   -938.503646
PC44  10876.110217 -21419.713772  14159.364232    581.972392
PC45  25760.350308  -5043.058521  -9515.313496    694.343147
PC46  -3495.604031  18197.349315 -20858.166185   -196.557522
PE01 -25546.823377  -9332.309330  11660.067457   -589.179348
PE02  25659.837144   9251.118729 -11532.794839    283.673844
PE03  19630.362504  17705.410043 -13309.724800   -533.247078
PE04 -17708.145601   1996.438017  23641.586892   -976.001092
PE05  10043.873149  27383.627898   5053.493965   -204.104507
PE07   5240.037816 -20988.046554 -20200.714732   -644.361271
PE08  17408.167187  -2433.939676 -23813.151235   -488.483138
PE09  -4894.057097  21099.450311  20174.261216   5342.168435
PE10 -19608.436847  20312.600871  -8900.995080   -498.257579
PE11 -15176.352164  25393.928044   1297.257627   4328.320789
PE12 -20912.671827  12151.902149 -17077.349753   4733.270912
PE13  15484.970186 -25211.336906   -622.596903    426.965972
PE14  -1479.534279 -27105.404158   7373.512345  -1764.247902
PE15  20820.101327 -12059.111433  17244.191531    760.158224
PE18  -9205.275272  21185.644174 -17420.532739  -1730.733268
PE19 -18943.455929 -19718.266824  11335.998586   -655.310974
PE21  -8860.702930 -16204.774727  23122.187171   -720.230614
PE24 -15210.142273  13755.098475 -21351.561579  -1419.316530
PE25   8592.781845  16247.273627 -23205.266566   -565.425615
PE26    228.936849 -23020.482802 -18595.285545   -866.454406
PE27  13898.107473 -14216.586849  21931.933620   -244.198707
PE30  28645.205873  -3069.980970   6833.956722   -316.567957
PE31 -28268.328213   3884.455907  -7851.322657   -492.951205
PE33 -13863.735890  -8118.567202 -24852.803918   -458.941013
PE34  14003.827898   7900.216322  24850.889388   -504.641719
PE36  -1088.724462  23474.979703  18012.510827   -339.719061
PG01  12803.383734 -21974.004267  -7276.621299    418.525735
PG02 -19606.930722  12421.059384 -12372.635252   -651.725739
PG03   7184.812316 -13701.438695 -21678.348017   -145.510360
PG04   2700.295843 -22660.780514 -13512.041411   -186.301250
PG05 -22035.830805   6327.608298  13377.502373    -73.275262
PG06 -15170.510304  -4033.222115 -21369.640435    218.305968
PG07  -1432.329980 -18890.562012  18797.591056    313.772369
PG08   9449.454303 -14384.578712  20103.861186    -58.265301
PG09  -6768.248736 -25406.216086  -3702.759449   -351.775375
PG10  21184.398550  11734.753683  11384.548117   -335.280364
PG11 -21258.616952   9157.261268 -13020.165995    -72.995130
PG12 -11236.597333  12021.288128 -21086.890799   -178.912826
PG13 -13960.496407   5866.112417  21656.457372    270.289640
PG14 -20059.190109 -13007.325168  11640.633224    -89.788554
PG15  -7811.778468  16126.731564  19102.320386    -79.826341
PG16  24571.916110   -524.435755  10375.559641   -475.972366
PG17 -13243.405601 -20127.083260 -10691.462608    582.046515
PG18    498.837050  18767.630681  18742.056547    228.773074
PG19 -15237.635627 -13626.383191 -17320.268366    125.821272
PG20 -25980.654613   2367.558035   4227.497717    516.471809
PG21  17682.422677 -18937.864933   4598.638637    158.847927
PG22  15892.421432  10554.363786 -18155.097537    221.482095
PG23  11166.249202  14945.333241  18931.957894     -3.394866
PG24 -13968.121139  22227.486682  -2384.809074    271.254335
PG25   3408.597937  15880.144779 -21346.346626    292.860402
PG26  26232.236906   4811.766795  -1888.912170    187.587693
PG27  14899.977644  -2167.605331  21708.322439    140.003769
PG28 -24118.572975 -10055.026625   4524.284620    389.103336
PG29   3119.394627  25743.200279  -5655.717166   -486.609780
PG30  -9221.378688 -13142.779755  21204.220832   -516.487159
PG31  17411.548852   1976.397942 -20213.196760   -167.138550
PG32  16059.795314  16236.535506 -13583.687056    -77.270173
PJ02 -33428.850944  15485.849357 -15944.365491     -1.698663
PJ03 -22090.911513  31165.364995 -13194.035173     -0.780934
PR01 -14622.985991 -19152.365885  -8383.009089      7.157018
PR02 -19515.706340 -11732.553445  11475.622470    511.310156
PR03 -12335.902326   2668.784681  22203.955451     52.403370
PR04   1698.875008  15127.695664  20501.394161    130.097316
PR05  14707.461147  19476.214386   7476.162278     88.661936
PR07  11901.457697  -3146.618385 -22307.144701     32.216998
PR08  -1793.558436 -15231.277479 -20315.488086    -63.820264
PR09  22489.563272   -621.217452 -11940.529012     42.257068
PR11  11167.838790 -12758.554274  19058.044497     44.500968
PR12  -8471.388033  -8734.715073  22433.809616     17.321937
PR13 -21944.884607     61.745281  12976.586033    -18.950675
PR14 -23150.237034   9360.823735  -5230.705746     74.961972
PR15 -10562.384971  12702.649286 -19421.421368     97.822093
PR17 -11853.552947  14652.368840 -17162.521861    506.227299
PR18  -7455.082962  24342.033123  -2026.636731    109.029590
PR19   -298.186087  21773.562601  13290.724802   -180.105429
PR20   9378.386946   4633.930753  23276.440927    -65.949469
PR21  11728.624201 -15883.070262  16164.040444   -282.170897
PR22   7203.141246 -24386.130573   1117.062338   -168.053801
PR24 -10163.916294  -3749.230809 -23074.476032     82.570502
EOF
